<?xml version="1.0" encoding="UTF-8"?>
<kml xmlns="http://www.opengis.net/kml/2.2">
  <Document>
    <Placemark>
      <name>Plot A</name>
      <Polygon>
        <outerBoundaryIs>
          <LinearRing>
            <coordinates>
              73.32,25.77,0 73.33,25.77,0 73.33,25.78,0 73.32,25.78,0 73.32,25.77,0
            </coordinates>
          </LinearRing>
        </outerBoundaryIs>
      </Polygon>
    </Placemark>
    <Placemark>
      <name>Road B</name>
      <LineString>
        <coordinates>73.32,25.77,0 73.33,25.78,0</coordinates>
      </LineString>
    </Placemark>
    <Placemark>
      <name>Well C</name>
      <Point>
        <coordinates>73.325,25.775,0</coordinates>
      </Point>
    </Placemark>
  </Document>
</kml>